GOES 15                 
1 36411U 10008A   22230.44952934  .00000047  00000+0  00000+0 0  9992
2 36411   0.4271 276.2557 0004691 246.9333 197.3507  1.00273197 45646
COMS 1                  
1 36744U 10032A   22230.84702122 -.00000352  00000+0  00000+0 0  9994
2 36744   1.2334  92.2159 0000968  89.1013 218.9154  1.00270703 37068
FENGYUN 3B              
1 37214U 10059A   22231.10475102  .00000021  00000+0  34968-4 0  9998
2 37214  99.0932 238.1924 0022194 175.8857 184.2500 14.14262628609819
SUOMI NPP               
1 37849U 11061A   22231.15569512  .00000044  00000+0  41835-4 0  9996
2 37849  98.7336 168.8437 0001265  85.8121  39.2608 14.19538693560081
FENGYUN 2F              
1 38049U 12002A   22230.59000209 -.00000367  00000+0  00000+0 0  9998
2 38049   3.9396  79.2221 0000561 126.1013  86.1932  1.00272221 38866
METEOSAT-10 (MSG-3)     
1 38552U 12035B   22230.85799900  .00000053  00000+0  00000+0 0  9996
2 38552   1.6145  44.6089 0000347  61.1420 179.4846  1.00272021 36835
METOP-B                 
1 38771U 12049A   22231.20284031  .00000052  00000+0  43829-4 0  9998
2 38771  98.6912 290.0132 0000779 135.3097 292.0151 14.21502111514649
FENGYUN 3C              
1 39260U 13052A   22231.16194935  .00000053  00000+0  47677-4 0  9991
2 39260  98.4516 256.0937 0012356  93.3766 266.8824 14.15937279460798
METEOR-M 2              
1 40069U 14037A   22231.07390564  .00000011  00000+0  24209-4 0  9990
2 40069  98.4313 246.0195 0006456 131.1159 229.0582 14.20715948420755
HIMAWARI-8              
1 40267U 14060A   22230.85952025 -.00000282  00000+0  00000+0 0  9996
2 40267   0.0244 200.8443 0000922 330.4749 245.9598  1.00271935 28735
FENGYUN 2G              
1 40367U 14090A   22230.87707282 -.00000309  00000+0  00000+0 0  9995
2 40367   2.0886  88.8858 0000571 246.3275  47.3859  1.00266211 27973
METEOSAT-11 (MSG-4)     
1 40732U 15034A   22230.78440189 -.00000014  00000+0  00000+0 0  9993
2 40732   0.4156  68.5368 0001288  34.5307 146.1338  1.00268111 26005
ELEKTRO-L 2             
1 41105U 15074A   22230.92507090 -.00000124  00000+0  00000+0 0  9995
2 41105   3.1410  87.4234 0002445  78.3108 120.0782  1.00271547 24498
HIMAWARI-9              
1 41836U 16064A   22230.99979963 -.00000282  00000+0  00000+0 0  9990
2 41836   0.0440 295.6679 0000562 243.4494 288.8834  1.00270415 21283
GOES 16                 
1 41866U 16071A   22230.84125654 -.00000255  00000+0  00000+0 0  9995
2 41866   0.0561 270.7350 0000638 295.6705 348.4120  1.00271733 21092
FENGYUN 4A              
1 41882U 16077A   22231.20677795 -.00000335  00000+0  00000+0 0  9997
2 41882   0.1284  83.1907 0003067  39.7021  23.6389  1.00266777 20960
CYGFM05                 
1 41884U 16078A   22231.18229563  .00002730  00000+0  13777-3 0  9992
2 41884  34.9552 171.0736 0015879 290.9389  68.9623 15.16599456314418
CYGFM04                 
1 41885U 16078B   22230.22513294  .00003232  00000+0  16042-3 0  9990
2 41885  34.9485 165.9217 0014264 298.9351  60.9931 15.17133459314214
CYGFM02                 
1 41886U 16078C   22230.21435114  .00003454  00000+0  17108-3 0  9994
2 41886  34.9578 168.2172 0014996 293.3447  66.5688 15.17171067314297
CYGFM01                 
1 41887U 16078D   22230.92888795  .00002943  00000+0  14918-3 0  9998
2 41887  34.9520 175.1440 0016363 288.0939  71.7990 15.16404483314224
CYGFM08                 
1 41888U 16078E   22231.09159253  .00002911  00000+0  14565-3 0  9991
2 41888  34.9491 166.4867 0015429 300.8159  59.1034 15.16878906314412
CYGFM06                 
1 41889U 16078F   22230.19405427  .00003324  00000+0  16472-3 0  9997
2 41889  34.9570 167.0134 0013998 292.9658  66.9577 15.17186123314231
CYGFM07                 
1 41890U 16078G   22230.24696112  .00003172  00000+0  15754-3 0  9991
2 41890  34.9509 165.5310 0013775 297.7146  62.2168 15.17118386314378
CYGFM03                 
1 41891U 16078H   22230.17999145  .00003102  00000+0  15413-3 0  9991
2 41891  34.9538 166.4389 0013291 294.9008  65.0323 15.17123606314203
FENGYUN 3D              
1 43010U 17072A   22231.09828089  .00000034  00000+0  37674-4 0  9996
2 43010  98.8178 175.3968 0002943  79.1785 280.9735 14.19218057246650
NOAA 20                 
1 43013U 17073A   22231.16571051  .00000040  00000+0  39549-4 0  9992
2 43013  98.7175 168.7453 0000699 102.1443 257.9812 14.19539056246125
GOES 17                 
1 43226U 18022A   22230.61361267  .00000091  00000+0  00000+0 0  9999
2 43226   0.0955 272.9394 0000356 285.5900 212.0086  1.00274233 16397
FENGYUN 2H              
1 43491U 18050A   22231.08719578 -.00000134  00000+0  00000+0 0  9997
2 43491   1.3029  95.9904 0004234  49.2472 292.7057  1.00268607 15496
METOP-C                 
1 43689U 18087A   22231.08589210  .00000059  00000+0  47047-4 0  9996
2 43689  98.6794 290.0398 0002287 193.8469 166.2646 14.21502160196206
GEO-KOMPSAT-2A          
1 43823U 18100A   22227.42270200 -.00000360  00000+0  00000+0 0  9990
2 43823   0.0119 113.1225 0001828   2.1497 128.9535  1.00271264 13561
METEOR-M2 2             
1 44387U 19038A   22231.12146100 -.00000015  00000+0  12784-4 0  9994
2 44387  98.7271 191.4126 0002453  89.3809 270.7652 14.23716984162325
FENGYUN 3E              
1 49008U 21062A   22231.02444020 -.00000006  00000+0  17648-4 0  9994
2 49008  98.7127 231.9995 0002270 137.8198 222.3159 14.19736374 58195
GOES 18                 
1 51850U 22021A   22231.21411319  .00000090  00000+0  00000+0 0  9995
2 51850   0.0283  78.3744 0003038 134.7402  54.5254  1.00273768  1787
STARLINK-4391           
1 53189U 22084A   22231.16668981 -.01219216  00000+0 -23185-1 0  9990
2 53189  97.6554 290.8447 0001765 102.9625 180.4032 15.50889153  4829
STARLINK-4332           
1 53190U 22084B   22230.91667824 -.01219714  00000+0 -23397-1 0  9997
2 53190  97.6554 290.5644 0001883 103.0483 143.7664 15.50645342  4780
STARLINK-4369           
1 53191U 22084C   22231.16668981 -.01216915  00000+0 -26411-1 0  9991
2 53191  97.6553 290.8455 0001878 100.8313  73.8180 15.47127114  4823
STARLINK-4375           
1 53192U 22084D   22230.91667824 -.01219615  00000+0 -25484-1 0  9998
2 53192  97.6555 290.5783 0002037 116.7478 109.4662 15.48220733  4781
STARLINK-4351           
1 53193U 22084E   22231.16668981 -.00776605  00000+0 -14305-1 0  9998
2 53193  97.6548 290.8414 0001835 106.6228  78.5576 15.51465904  4824
STARLINK-4382           
1 53194U 22084F   22230.91667824 -.01218108  00000+0 -25982-1 0  9999
2 53194  97.6555 290.5800 0001898  88.8020 132.5237 15.47628742  4785
STARLINK-4404           
1 53195U 22084G   22230.91667824 -.01219624  00000+0 -25484-1 0  9991
2 53195  97.6555 290.5774 0002049 117.8268 109.1132 15.48220878  4785
STARLINK-4407           
1 53196U 22084H   22230.91667824 -.01218893  00000+0 -25633-1 0  9995
2 53196  97.6555 290.5790 0001924 102.9015 121.7947 15.48036392  4780
STARLINK-4403           
1 53197U 22084J   22230.91667824 -.01219203  00000+0 -24905-1 0  9993
2 53197  97.6555 290.5757 0001915 103.4869 128.0431 15.48866564  4787
STARLINK-4385           
1 53198U 22084K   22230.91667824 -.01219170  00000+0 -25062-1 0  9992
2 53198  97.6555 290.5767 0001920 103.7383 125.7268 15.48686769  4788
STARLINK-4395           
1 53199U 22084L   22230.91667824 -.01219541  00000+0 -24545-1 0  9990
2 53199  97.6555 290.5739 0001933 107.1555 127.0916 15.49288642  4785
STARLINK-4417           
1 53200U 22084M   22230.91667824 -.01219140  00000+0 -24960-1 0  9999
2 53200  97.6555 290.5766 0001913 102.7241 127.8657 15.48802182  4789
STARLINK-4405           
1 53201U 22084N   22230.91667824 -.01219705  00000+0 -24401-1 0  9997
2 53201  97.6555 290.5729 0001950 109.8095 126.3313 15.49459460  4786
STARLINK-4411           
1 53202U 22084P   22231.16668981 -.01217747  00000+0 -25346-1 0  9994
2 53202  97.6553 290.8404 0001880 100.4946  85.0715 15.48329185  4823
STARLINK-4409           
1 53203U 22084Q   22230.91667824 -.01220250  00000+0 -24233-1 0  9999
2 53203  97.6554 290.5713 0002054 119.8182 118.9847 15.49668001  4786
STARLINK-4410           
1 53204U 22084R   22230.91667824 -.01220264  00000+0 -24559-1 0  9996
2 53204  97.6555 290.5729 0002112 123.2496 111.7236 15.49289378  4786
STARLINK-4397           
1 53205U 22084S   22230.91667824 -.01220020  00000+0 -24083-1 0  9999
2 53205  97.6554 290.5694 0001982 114.0943 126.5128 15.49838272  1308
STARLINK-4408           
1 53206U 22084T   22230.91667824 -.01219400  00000+0 -24290-1 0  9990
2 53206  97.6555 290.5720 0001903 103.3698 134.5136 15.49581175  1306
STARLINK-4413           
1 53207U 22084U   22230.91667824 -.01219659  00000+0 -23971-1 0  9992
2 53207  97.6554 290.5694 0001912 105.9991 135.5640 15.49961331  4782
STARLINK-4425           
1 53208U 22084V   22230.91667824 -.01219838  00000+0 -24299-1 0  9996
2 53208  97.6555 290.5720 0001965 111.7568 125.4007 15.49581312  4789
STARLINK-4423           
1 53209U 22084W   22230.91667824 -.01219831  00000+0 -23818-1 0  9996
2 53209  97.6554 290.5685 0001923 108.0509 134.5438 15.50146203  1309
STARLINK-4427           
1 53210U 22084X   22230.91667824 -.01218327  00000+0 -24166-1 0  9994
2 53210  97.6554 290.5702 0001878  81.8740 157.7242 15.49698903  4787
STARLINK-4419           
1 53211U 22084Y   22231.16668981 -.01219152  00000+0 -24050-1 0  9997
2 53211  97.6552 290.8317 0001984 115.5957  83.9485 15.49854964  4829
STARLINK-4416           
1 53212U 22084Z   22230.91667824 -.01220112  00000+0 -23764-1 0  9994
2 53212  97.6554 290.5675 0001961 112.6876 130.7372 15.50216962  4782
STARLINK-4414           
1 53213U 22084AA  22230.91667824 -.01220870  00000+0 -23321-1 0  9995
2 53213  97.6554 290.5631 0001974 115.3009 133.0551 15.50765051  4780
STARLINK-4353           
1 53214U 22084AB  22230.91667824 -.01220094  00000+0 -23618-1 0  9993
2 53214  97.6554 290.5665 0001948 111.5476 132.8302 15.50390109  1309
